{"type": "FeatureCollection", "features": [ {"type": "Feature", "properties": {"norad_id": 34833, "name": "IRIDIUM 33 DEB", "group": "iridium-33-debris", "lat": -0.28590589676549155, "lon": 50.79679704250442, "alt_km": 722.9014552273156, "timestamp": "2025-12-13T03:42:11.657652+00:00", "meta": {"OBJECT_NAME": "IRIDIUM 33 DEB", "OBJECT_ID": "1997-051MH", "EPOCH": "2025-12-12T04:48:08.627040", "MEAN_MOTION": 14.52373802, "ECCENTRICITY": 0.00218096, "INCLINATION": 86.3926, "RA_OF_ASC_NODE": 51.226, "ARG_OF_PERICENTER": 100.2629, "MEAN_ANOMALY": 313.9215, "EPHEMERIS_TYPE": 0, "CLASSIFICATION_TYPE": "U", "NORAD_CAT_ID": 34833, "ELEMENT_SET_NO": 999, "REV_AT_EPOCH": 87707, "BSTAR": 0.0012457755, "MEAN_MOTION_DOT": 5.107e-05, "MEAN_MOTION_DDOT": 0}, "tle": {"line1": "1 34833U 97051MH  25346.20009985  .00005107  00000+0  12458-2 0  9990", "line2": "2 34833  86.3926  51.2260 0021809 100.2629 313.9215 14.52373802877071"}}, "geometry": {"type": "Point", "coordinates": [50.79679704250442, -0.28590589676549155]}}, {"type": "Feature", "properties": {"norad_id": 34870, "name": "IRIDIUM 33 DEB", "group": "iridium-33-debris", "lat": 7.8266647100989735, "lon": -45.597603421886284, "alt_km": 653.8210458163212, "timestamp": "2025-12-13T03:42:11.657662+00:00", "meta": {"OBJECT_NAME": "IRIDIUM 33 DEB", "OBJECT_ID": "1997-051MQ", "EPOCH": "2025-12-12T05:10:32.154816", "MEAN_MOTION": 14.76416829, "ECCENTRICITY": 0.00161138, "INCLINATION": 86.3104, "RA_OF_ASC_NODE": 314.324, "ARG_OF_PERICENTER": 184.3674, "MEAN_ANOMALY": 237.8107, "EPHEMERIS_TYPE": 0, "CLASSIFICATION_TYPE": "U", "NORAD_CAT_ID": 34870, "ELEMENT_SET_NO": 999, "REV_AT_EPOCH": 88903, "BSTAR": 0.0023634796, "MEAN_MOTION_DOT": 0.00016508, "MEAN_MOTION_DDOT": 0}, "tle": {"line1": "1 34870U 97051MQ  25346.21564994  .00016508  00000+0  23635-2 0  9994", "line2": "2 34870  86.3104 314.3240 0016113 184.3674 237.8107 14.76416829889032"}}, "geometry": {"type": "Point", "coordinates": [-45.597603421886284, 7.8266647100989735]}}, {"type": "Feature", "properties": {"norad_id": 34896, "name": "IRIDIUM 33 DEB", "group": "iridium-33-debris", "lat": -13.996492531611034, "lon": 147.41673541399857, "alt_km": 661.5781812576752, "timestamp": "2025-12-13T03:42:11.657672+00:00", "meta": {"OBJECT_NAME": "IRIDIUM 33 DEB", "OBJECT_ID": "1997-051MY", "EPOCH": "2025-12-11T06:54:08.257248", "MEAN_MOTION": 14.66256347, "ECCENTRICITY": 0.00241983, "INCLINATION": 86.3294, "RA_OF_ASC_NODE": 327.3367, "ARG_OF_PERICENTER": 219.9786, "MEAN_ANOMALY": 206.8534, "EPHEMERIS_TYPE": 0, "CLASSIFICATION_TYPE": "U", "NORAD_CAT_ID": 34896, "ELEMENT_SET_NO": 999, "REV_AT_EPOCH": 87598, "BSTAR": 0.0017967326, "MEAN_MOTION_DOT": 9.969e-05, "MEAN_MOTION_DDOT": 0}, "tle": {"line1": "1 34896U 97051MY  25345.28759557  .00009969  00000+0  17967-2 0  9993", "line2": "2 34896  86.3294 327.3367 0024198 219.9786 206.8534 14.66256347875980"}}, "geometry": {"type": "Point", "coordinates": [147.41673541399857, -13.996492531611034]}}, {"type": "Feature", "properties": {"norad_id": 34926, "name": "IRIDIUM 33 DEB", "group": "iridium-33-debris", "lat": -81.49991828489047, "lon": -145.00734444773866, "alt_km": 671.8083827389391, "timestamp": "2025-12-13T03:42:11.657682+00:00", "meta": {"OBJECT_NAME": "IRIDIUM 33 DEB", "OBJECT_ID": "1997-051NF", "EPOCH": "2025-12-11T19:22:10.619040", "MEAN_MOTION": 14.54346009, "ECCENTRICITY": 0.00754631, "INCLINATION": 86.1327, "RA_OF_ASC_NODE": 8.7055, "ARG_OF_PERICENTER": 295.9766, "MEAN_ANOMALY": 117.5242, "EPHEMERIS_TYPE": 0, "CLASSIFICATION_TYPE": "U", "NORAD_CAT_ID": 34926, "ELEMENT_SET_NO": 999, "REV_AT_EPOCH": 86443, "BSTAR": 0.0073698942, "MEAN_MOTION_DOT": 0.00032638, "MEAN_MOTION_DDOT": 0}, "tle": {"line1": "1 34926U 97051NF  25345.80706735  .00032638  00000+0  73699-2 0  9998", "line2": "2 34926  86.1327   8.7055 0075463 295.9766 117.5242 14.54346009864430"}}, "geometry": {"type": "Point", "coordinates": [-145.00734444773866, -81.49991828489047]}}, {"type": "Feature", "properties": {"norad_id": 34985, "name": "IRIDIUM 33 DEB", "group": "iridium-33-debris", "lat": 9.348365312730767, "lon": 57.301290848510604, "alt_km": 766.4983787309156, "timestamp": "2025-12-13T03:42:11.657693+00:00", "meta": {"OBJECT_NAME": "IRIDIUM 33 DEB", "OBJECT_ID": "1997-051NR", "EPOCH": "2025-12-12T04:28:48.220608", "MEAN_MOTION": 14.42006699, "ECCENTRICITY": 0.00207093, "INCLINATION": 86.3696, "RA_OF_ASC_NODE": 57.1151, "ARG_OF_PERICENTER": 221.9104, "MEAN_ANOMALY": 167.4455, "EPHEMERIS_TYPE": 0, "CLASSIFICATION_TYPE": "U", "NORAD_CAT_ID": 34985, "ELEMENT_SET_NO": 999, "REV_AT_EPOCH": 87167, "BSTAR": 0.001080303, "MEAN_MOTION_DOT": 3.571e-05, "MEAN_MOTION_DDOT": 0}, "tle": {"line1": "1 34985U 97051NR  25346.18666922  .00003571  00000+0  10803-2 0  9990", "line2": "2 34985  86.3696  57.1151 0020709 221.9104 167.4455 14.42006699871678"}}, "geometry": {"type": "Point", "coordinates": [57.301290848510604, 9.348365312730767]}}, {"type": "Feature", "properties": {"norad_id": 35051, "name": "IRIDIUM 33 DEB", "group": "iridium-33-debris", "lat": -49.57951162451428, "lon": 4.352767634664261, "alt_km": 746.1440454522262, "timestamp": "2025-12-13T03:42:11.657703+00:00", "meta": {"OBJECT_NAME": "IRIDIUM 33 DEB", "OBJECT_ID": "1997-051NX", "EPOCH": "2025-12-11T08:47:57.045408", "MEAN_MOTION": 14.47588957, "ECCENTRICITY": 0.00106566, "INCLINATION": 86.3243, "RA_OF_ASC_NODE": 9.4603, "ARG_OF_PERICENTER": 94.8899, "MEAN_ANOMALY": 265.3522, "EPHEMERIS_TYPE": 0, "CLASSIFICATION_TYPE": "U", "NORAD_CAT_ID": 35051, "ELEMENT_SET_NO": 999, "REV_AT_EPOCH": 86976, "BSTAR": 0.001042299, "MEAN_MOTION_DOT": 3.858e-05, "MEAN_MOTION_DDOT": 0}, "tle": {"line1": "1 35051U 97051NX  25345.36663247  .00003858  00000+0  10423-2 0  9997", "line2": "2 35051  86.3243   9.4603 0010656  94.8899 265.3522 14.47588957869768"}}, "geometry": {"type": "Point", "coordinates": [4.352767634664261, -49.57951162451428]}}, {"type": "Feature", "properties": {"norad_id": 35052, "name": "IRIDIUM 33 DEB", "group": "iridium-33-debris", "lat": 84.59614852861921, "lon": 63.007997377323086, "alt_km": 746.2803488609534, "timestamp": "2025-12-13T03:42:11.657713+00:00", "meta": {"OBJECT_NAME": "IRIDIUM 33 DEB", "OBJECT_ID": "1997-051NY", "EPOCH": "2025-12-11T12:54:27.641952", "MEAN_MOTION": 14.38490165, "ECCENTRICITY": 0.00136793, "INCLINATION": 86.3312, "RA_OF_ASC_NODE": 20.9917, "ARG_OF_PERICENTER": 88.4217, "MEAN_ANOMALY": 271.8548, "EPHEMERIS_TYPE": 0, "CLASSIFICATION_TYPE": "U", "NORAD_CAT_ID": 35052, "ELEMENT_SET_NO": 999, "REV_AT_EPOCH": 87258, "BSTAR": 0.00027419057, "MEAN_MOTION_DOT": 8.58e-06, "MEAN_MOTION_DDOT": 0}, "tle": {"line1": "1 35052U 97051NY  25345.53781993  .00000858  00000+0  27419-3 0  9997", "line2": "2 35052  86.3312  20.9917 0013679  88.4217 271.8548 14.38490165872580"}}, "geometry": {"type": "Point", "coordinates": [63.007997377323086, 84.59614852861921]}}, {"type": "Feature", "properties": {"norad_id": 35080, "name": "IRIDIUM 33 DEB", "group": "iridium-33-debris", "lat": -27.941190027511926, "lon": 50.16098804350981, "alt_km": 653.7696705371418, "timestamp": "2025-12-13T03:42:11.657723+00:00", "meta": {"OBJECT_NAME": "IRIDIUM 33 DEB", "OBJECT_ID": "1997-051PF", "EPOCH": "2025-12-12T03:35:19.907808", "MEAN_MOTION": 14.85960238, "ECCENTRICITY": 0.00604695, "INCLINATION": 86.207, "RA_OF_ASC_NODE": 52.6577, "ARG_OF_PERICENTER": 181.932, "MEAN_ANOMALY": 178.1681, "EPHEMERIS_TYPE": 0, "CLASSIFICATION_TYPE": "U", "NORAD_CAT_ID": 35080, "ELEMENT_SET_NO": 999, "REV_AT_EPOCH": 69679, "BSTAR": 0.0091733841, "MEAN_MOTION_DOT": 0.00083628, "MEAN_MOTION_DDOT": 0}, "tle": {"line1": "1 35080U 97051PF  25346.14953597  .00083628  00000+0  91734-2 0  9993", "line2": "2 35080  86.2070  52.6577 0060469 181.9320 178.1681 14.85960238696797"}}, "geometry": {"type": "Point", "coordinates": [50.16098804350981, -27.941190027511926]}}, {"type": "Feature", "properties": {"norad_id": 35297, "name": "IRIDIUM 33 DEB", "group": "iridium-33-debris", "lat": 2.7400901390687276, "lon": 62.75734484982071, "alt_km": 752.6915051429824, "timestamp": "2025-12-13T03:42:11.657733+00:00", "meta": {"OBJECT_NAME": "IRIDIUM 33 DEB", "OBJECT_ID": "1997-051PM", "EPOCH": "2025-12-06T00:31:29.302752", "MEAN_MOTION": 14.45108459, "ECCENTRICITY": 0.00170329, "INCLINATION": 86.3867, "RA_OF_ASC_NODE": 65.6268, "ARG_OF_PERICENTER": 161.2449, "MEAN_ANOMALY": 198.9384, "EPHEMERIS_TYPE": 0, "CLASSIFICATION_TYPE": "U", "NORAD_CAT_ID": 35297, "ELEMENT_SET_NO": 999, "REV_AT_EPOCH": 70329, "BSTAR": 0.0012426888, "MEAN_MOTION_DOT": 4.371e-05, "MEAN_MOTION_DDOT": 0}, "tle": {"line1": "1 35297U 97051PM  25340.02186693  .00004371  00000+0  12427-2 0  9999", "line2": "2 35297  86.3867  65.6268 0017032 161.2449 198.9384 14.45108459703293"}}, "geometry": {"type": "Point", "coordinates": [62.75734484982071, 2.7400901390687276]}}, {"type": "Feature", "properties": {"norad_id": 35299, "name": "IRIDIUM 33 DEB", "group": "iridium-33-debris", "lat": -70.48043193817672, "lon": 22.45494363010434, "alt_km": 804.6261613867027, "timestamp": "2025-12-13T03:42:11.657743+00:00", "meta": {"OBJECT_NAME": "IRIDIUM 33 DEB", "OBJECT_ID": "1997-051PP", "EPOCH": "2025-12-11T14:23:51.968256", "MEAN_MOTION": 14.40851716, "ECCENTRICITY": 0.00589419, "INCLINATION": 86.2884, "RA_OF_ASC_NODE": 33.6823, "ARG_OF_PERICENTER": 106.0138, "MEAN_ANOMALY": 45.6441, "EPHEMERIS_TYPE": 0, "CLASSIFICATION_TYPE": "U", "NORAD_CAT_ID": 35299, "ELEMENT_SET_NO": 999, "REV_AT_EPOCH": 86314, "BSTAR": 0.0011895321, "MEAN_MOTION_DOT": 3.91e-05, "MEAN_MOTION_DDOT": 0}, "tle": {"line1": "1 35299U 97051PP  25345.59990704  .00003910  00000+0  11895-2 0  9990", "line2": "2 35299  86.2884  33.6823 0058941 106.0138  45.6441 14.40851716863140"}}, "geometry": {"type": "Point", "coordinates": [22.45494363010434, -70.48043193817672]}}]}